{"type": "FeatureCollection", "features": [{"type": "Feature", "properties": {"norad_id": 37846, "name": "GSAT0101 (GALILEO-PFM)", "group": "galileo", "lat": 55.160937031378346, "lon": 98.21525962008235, "alt_km": 23223.09667294369, "timestamp": "2025-12-08T08:59:01.028422+00:00", "meta": {"OBJECT_NAME": "GSAT0101 (GALILEO-PFM)", "OBJECT_ID": "2011-060A", "EPOCH": "2025-12-06T10:45:46.943136", "MEAN_MOTION": 1.70475516, "ECCENTRICITY": 0.00028809, "INCLINATION": 57.0541, "RA_OF_ASC_NODE": 346.9907, "ARG_OF_PERICENTER": 311.6243, "MEAN_ANOMALY": 48.3737, "EPHEMERIS_TYPE": 0, "CLASSIFICATION_TYPE": "U", "NORAD_CAT_ID": 37846, "ELEMENT_SET_NO": 999, "REV_AT_EPOCH": 8783, "BSTAR": 0, "MEAN_MOTION_DOT": -8.1e-07, "MEAN_MOTION_DDOT": 0}, "tle": {"line1": "1 37846U 11060A   25340.44845999 -.00000081  00000+0  00000+0 0  9990", "line2": "2 37846  57.0541 346.9907 0002880 311.6243  48.3737  1.70475516 87832"}}, "geometry": {"type": "Point", "coordinates": [98.21525962008235, 55.160937031378346]}}, {"type": "Feature", "properties": {"norad_id": 37847, "name": "GSAT0102 (GALILEO-FM2)", "group": "galileo", "lat": 26.867816673328832, "lon": 147.75494257315273, "alt_km": 23232.213891956882, "timestamp": "2025-12-08T08:59:01.028451+00:00", "meta": {"OBJECT_NAME": "GSAT0102 (GALILEO-FM2)", "OBJECT_ID": "2011-060B", "EPOCH": "2025-12-06T01:52:21.849024", "MEAN_MOTION": 1.7047572, "ECCENTRICITY": 0.00048425, "INCLINATION": 57.055, "RA_OF_ASC_NODE": 347.0012, "ARG_OF_PERICENTER": 307.2223, "MEAN_ANOMALY": 230.8964, "EPHEMERIS_TYPE": 0, "CLASSIFICATION_TYPE": "U", "NORAD_CAT_ID": 37847, "ELEMENT_SET_NO": 999, "REV_AT_EPOCH": 8783, "BSTAR": 0, "MEAN_MOTION_DOT": -7.9e-07, "MEAN_MOTION_DDOT": 0}, "tle": {"line1": "1 37847U 11060B   25340.07803066 -.00000079  00000+0  00000+0 0  9996", "line2": "2 37847  57.0550 347.0012 0004842 307.2223 230.8964  1.70475720 87838"}}, "geometry": {"type": "Point", "coordinates": [147.75494257315273, 26.867816673328832]}}, {"type": "Feature", "properties": {"norad_id": 38857, "name": "GSAT0103 (GALILEO-FM3)", "group": "galileo", "lat": 53.70425451309259, "lon": 175.03101517876644, "alt_km": 23223.214723808636, "timestamp": "2025-12-08T08:59:01.028467+00:00", "meta": {"OBJECT_NAME": "GSAT0103 (GALILEO-FM3)", "OBJECT_ID": "2012-055A", "EPOCH": "2025-12-06T11:43:28.953984", "MEAN_MOTION": 1.7047325, "ECCENTRICITY": 0.00024686, "INCLINATION": 55.6879, "RA_OF_ASC_NODE": 106.8382, "ARG_OF_PERICENTER": 267.747, "MEAN_ANOMALY": 92.1776, "EPHEMERIS_TYPE": 0, "CLASSIFICATION_TYPE": "U", "NORAD_CAT_ID": 38857, "ELEMENT_SET_NO": 999, "REV_AT_EPOCH": 8172, "BSTAR": 0, "MEAN_MOTION_DOT": 7e-08, "MEAN_MOTION_DDOT": 0}, "tle": {"line1": "1 38857U 12055A   25340.48852956  .00000007  00000+0  00000+0 0  9990", "line2": "2 38857  55.6879 106.8382 0002468 267.7470  92.1776  1.70473250 81723"}}, "geometry": {"type": "Point", "coordinates": [175.03101517876644, 53.70425451309259]}}, {"type": "Feature", "properties": {"norad_id": 40128, "name": "GSAT0201 (GALILEO 5)", "group": "galileo", "lat": -24.30245504033297, "lon": 124.24858156874048, "alt_km": 17824.99337559907, "timestamp": "2025-12-08T08:59:01.028480+00:00", "meta": {"OBJECT_NAME": "GSAT0201 (GALILEO 5)", "OBJECT_ID": "2014-050A", "EPOCH": "2025-12-07T12:54:32.900256", "MEAN_MOTION": 1.85519488, "ECCENTRICITY": 0.16474216, "INCLINATION": 49.0828, "RA_OF_ASC_NODE": 281.2757, "ARG_OF_PERICENTER": 172.085, "MEAN_ANOMALY": 190.9173, "EPHEMERIS_TYPE": 0, "CLASSIFICATION_TYPE": "U", "NORAD_CAT_ID": 40128, "ELEMENT_SET_NO": 999, "REV_AT_EPOCH": 7476, "BSTAR": 0, "MEAN_MOTION_DOT": -5.9e-07, "MEAN_MOTION_DDOT": 0}, "tle": {"line1": "1 40128U 14050A   25341.53788079 -.00000059  00000+0  00000+0 0  9990", "line2": "2 40128  49.0828 281.2757 1647421 172.0850 190.9173  1.85519488 74761"}}, "geometry": {"type": "Point", "coordinates": [124.24858156874048, -24.30245504033297]}}, {"type": "Feature", "properties": {"norad_id": 40129, "name": "GSAT0202 (GALILEO 6)", "group": "galileo", "lat": 15.275936378338086, "lon": -66.0163584520162, "alt_km": 25496.35392280503, "timestamp": "2025-12-08T08:59:01.028497+00:00", "meta": {"OBJECT_NAME": "GSAT0202 (GALILEO 6)", "OBJECT_ID": "2014-050B", "EPOCH": "2025-12-06T04:15:08.981856", "MEAN_MOTION": 1.85520222, "ECCENTRICITY": 0.16479377, "INCLINATION": 49.1003, "RA_OF_ASC_NODE": 280.4147, "ARG_OF_PERICENTER": 172.7832, "MEAN_ANOMALY": 189.9608, "EPHEMERIS_TYPE": 0, "CLASSIFICATION_TYPE": "U", "NORAD_CAT_ID": 40129, "ELEMENT_SET_NO": 999, "REV_AT_EPOCH": 7690, "BSTAR": 0, "MEAN_MOTION_DOT": -5.4e-07, "MEAN_MOTION_DDOT": 0}, "tle": {"line1": "1 40129U 14050B   25340.17718729 -.00000054  00000+0  00000+0 0  9990", "line2": "2 40129  49.1003 280.4147 1647937 172.7832 189.9608  1.85520222 76908"}}, "geometry": {"type": "Point", "coordinates": [-66.0163584520162, 15.275936378338086]}}, {"type": "Feature", "properties": {"norad_id": 40544, "name": "GSAT0203 (GALILEO 7)", "group": "galileo", "lat": -45.25261051775485, "lon": -151.94094937257626, "alt_km": 23210.762723289627, "timestamp": "2025-12-08T08:59:01.028520+00:00", "meta": {"OBJECT_NAME": "GSAT0203 (GALILEO 7)", "OBJECT_ID": "2015-017A", "EPOCH": "2025-12-05T01:16:54.709536", "MEAN_MOTION": 1.70475832, "ECCENTRICITY": 0.00065103, "INCLINATION": 56.8481, "RA_OF_ASC_NODE": 346.8898, "ARG_OF_PERICENTER": 269.6279, "MEAN_ANOMALY": 90.3257, "EPHEMERIS_TYPE": 0, "CLASSIFICATION_TYPE": "U", "NORAD_CAT_ID": 40544, "ELEMENT_SET_NO": 999, "REV_AT_EPOCH": 6589, "BSTAR": 0, "MEAN_MOTION_DOT": -7.5e-07, "MEAN_MOTION_DDOT": 0}, "tle": {"line1": "1 40544U 15017A   25339.05341099 -.00000075  00000+0  00000+0 0  9995", "line2": "2 40544  56.8481 346.8898 0006510 269.6279  90.3257  1.70475832 65891"}}, "geometry": {"type": "Point", "coordinates": [-151.94094937257626, -45.25261051775485]}}, {"type": "Feature", "properties": {"norad_id": 40545, "name": "GSAT0204 (GALILEO 8)", "group": "galileo", "lat": 55.83641988275766, "lon": 61.17311546312595, "alt_km": 23234.225146824494, "timestamp": "2025-12-08T08:59:01.028534+00:00", "meta": {"OBJECT_NAME": "GSAT0204 (GALILEO 8)", "OBJECT_ID": "2015-017B", "EPOCH": "2025-12-07T15:43:28.845408", "MEAN_MOTION": 1.70475423, "ECCENTRICITY": 0.00062687, "INCLINATION": 56.8542, "RA_OF_ASC_NODE": 346.8364, "ARG_OF_PERICENTER": 261.2444, "MEAN_ANOMALY": 98.7031, "EPHEMERIS_TYPE": 0, "CLASSIFICATION_TYPE": "U", "NORAD_CAT_ID": 40545, "ELEMENT_SET_NO": 999, "REV_AT_EPOCH": 2898, "BSTAR": 0, "MEAN_MOTION_DOT": -8.5e-07, "MEAN_MOTION_DDOT": 0}, "tle": {"line1": "1 40545U 15017B   25341.65519497 -.00000085  00000+0  00000+0 0  9995", "line2": "2 40545  56.8542 346.8364 0006268 261.2444  98.7031  1.70475423 28987"}}, "geometry": {"type": "Point", "coordinates": [61.17311546312595, 55.83641988275766]}}, {"type": "Feature", "properties": {"norad_id": 40889, "name": "GSAT0205 (GALILEO 9)", "group": "galileo", "lat": -34.32047400312649, "lon": 75.43038885583239, "alt_km": 23244.08317292671, "timestamp": "2025-12-08T08:59:01.028546+00:00", "meta": {"OBJECT_NAME": "GSAT0205 (GALILEO 9)", "OBJECT_ID": "2015-045A", "EPOCH": "2025-12-06T20:05:28.161600", "MEAN_MOTION": 1.70472973, "ECCENTRICITY": 0.00059315, "INCLINATION": 55.0055, "RA_OF_ASC_NODE": 226.9215, "ARG_OF_PERICENTER": 39.3036, "MEAN_ANOMALY": 320.836, "EPHEMERIS_TYPE": 0, "CLASSIFICATION_TYPE": "U", "NORAD_CAT_ID": 40889, "ELEMENT_SET_NO": 999, "REV_AT_EPOCH": 6373, "BSTAR": 0, "MEAN_MOTION_DOT": 2.8e-07, "MEAN_MOTION_DDOT": 0}, "tle": {"line1": "1 40889U 15045A   25340.83713150  .00000028  00000+0  00000+0 0  9994", "line2": "2 40889  55.0055 226.9215 0005931  39.3036 320.8360  1.70472973 63731"}}, "geometry": {"type": "Point", "coordinates": [75.43038885583239, -34.32047400312649]}}, {"type": "Feature", "properties": {"norad_id": 40890, "name": "GSAT0206 (GALILEO 10)", "group": "galileo", "lat": 54.96532824265633, "lon": -46.46316681588305, "alt_km": 23209.99732018979, "timestamp": "2025-12-08T08:59:01.028557+00:00", "meta": {"OBJECT_NAME": "GSAT0206 (GALILEO 10)", "OBJECT_ID": "2015-045B", "EPOCH": "2025-12-05T21:13:48.980352", "MEAN_MOTION": 1.70473029, "ECCENTRICITY": 0.00035588, "INCLINATION": 55.0048, "RA_OF_ASC_NODE": 226.9429, "ARG_OF_PERICENTER": 32.2764, "MEAN_ANOMALY": 327.8431, "EPHEMERIS_TYPE": 0, "CLASSIFICATION_TYPE": "U", "NORAD_CAT_ID": 40890, "ELEMENT_SET_NO": 999, "REV_AT_EPOCH": 6374, "BSTAR": 0, "MEAN_MOTION_DOT": 3.5e-07, "MEAN_MOTION_DDOT": 0}, "tle": {"line1": "1 40890U 15045B   25339.88459468  .00000035  00000+0  00000+0 0  9996", "line2": "2 40890  55.0048 226.9429 0003558  32.2764 327.8431  1.70473029 63745"}}, "geometry": {"type": "Point", "coordinates": [-46.46316681588305, 54.96532824265633]}}, {"type": "Feature", "properties": {"norad_id": 41174, "name": "GSAT0209 (GALILEO 12)", "group": "galileo", "lat": -12.505644965364475, "lon": 97.79341024050255, "alt_km": 23217.21308703589, "timestamp": "2025-12-08T08:59:01.028569+00:00", "meta": {"OBJECT_NAME": "GSAT0209 (GALILEO 12)", "OBJECT_ID": "2015-079A", "EPOCH": "2025-12-01T22:43:10.411392", "MEAN_MOTION": 1.70474306, "ECCENTRICITY": 0.0002352, "INCLINATION": 55.7062, "RA_OF_ASC_NODE": 106.6773, "ARG_OF_PERICENTER": 357.4206, "MEAN_ANOMALY": 2.5431, "EPHEMERIS_TYPE": 0, "CLASSIFICATION_TYPE": "U", "NORAD_CAT_ID": 41174, "ELEMENT_SET_NO": 999, "REV_AT_EPOCH": 6141, "BSTAR": 0, "MEAN_MOTION_DOT": 3.5e-07, "MEAN_MOTION_DDOT": 0}, "tle": {"line1": "1 41174U 15079A   25335.94664828  .00000035  00000+0  00000+0 0  9990", "line2": "2 41174  55.7062 106.6773 0002352 357.4206   2.5431  1.70474306 61412"}}, "geometry": {"type": "Point", "coordinates": [97.79341024050255, -12.505644965364475]}}]}